<?xml version="1.0" encoding="UTF-8"?>
<response xmlns:xsd="http://www.w3.org/2001/XMLSchema" xmlns:xsi="http://www.w3.org/2001/XMLSchema-instance" version="1.2" xsi:noNamespaceSchemaLocation="https://aviationweather.gov/data/schema/metar1_3.xsd">
  <data num_results="3">
    <METAR>
      <raw_text>KORD 061251Z 36010KT 10SM FEW250 15/08 A3012 RMK AO2 SLP201 T01500083</raw_text>
      <station_id>KORD</station_id>
      <observation_time>2025-01-06T12:51:00Z</observation_time>
      <latitude>41.98</latitude>
      <longitude>-87.91</longitude>
      <temp_c>15</temp_c>
      <dewpoint_c>8</dewpoint_c>
      <wind_dir_degrees>360</wind_dir_degrees>
      <wind_speed_kt>10</wind_speed_kt>
      <visibility>
        <statute_mi>10</statute_mi>
      </visibility>
      <altim_in_hg>30.12</altim_in_hg>
      <sea_level_pressure_mb>1020.1</sea_level_pressure_mb>
      <clouds>
        <cloud>
          <sky_cover>FEW</sky_cover>
          <cloud_base_ft_agl>25000</cloud_base_ft_agl>
        </cloud>
      </clouds>
      <wx_string></wx_string>
    </METAR>
    <METAR>
      <raw_text>KJFK 061250Z 28015G25KT 3SM HZ BKN008 OVC015 12/10 A2998 RMK AO2 SLP148 T01220100</raw_text>
      <station_id>KJFK</station_id>
      <observation_time>2025-01-06T12:50:00Z</observation_time>
      <latitude>40.64</latitude>
      <longitude>-73.78</longitude>
      <temp_c>12</temp_c>
      <dewpoint_c>10</dewpoint_c>
      <wind_dir_degrees>280</wind_dir_degrees>
      <wind_speed_kt>15</wind_speed_kt>
      <wind_gust_kt>25</wind_gust_kt>
      <visibility>
        <statute_mi>3</statute_mi>
      </visibility>
      <altim_in_hg>29.98</altim_in_hg>
      <sea_level_pressure_mb>1014.8</sea_level_pressure_mb>
      <clouds>
        <cloud>
          <sky_cover>BKN</sky_cover>
          <cloud_base_ft_agl>800</cloud_base_ft_agl>
        </cloud>
        <cloud>
          <sky_cover>OVC</sky_cover>
          <cloud_base_ft_agl>1500</cloud_base_ft_agl>
        </cloud>
      </clouds>
      <wx_string>HZ</wx_string>
    </METAR>
    <METAR>
      <raw_text>KLAX 061250Z 25008KT 1/2SM FG OVC002 10/10 A3015 RMK AO2 SLP210 T01000100</raw_text>
      <station_id>KLAX</station_id>
      <observation_time>2025-01-06T12:50:00Z</observation_time>
      <latitude>33.94</latitude>
      <longitude>-118.41</longitude>
      <temp_c>10</temp_c>
      <dewpoint_c>10</dewpoint_c>
      <wind_dir_degrees>250</wind_dir_degrees>
      <wind_speed_kt>8</wind_speed_kt>
      <visibility>
        <statute_mi>0.5</statute_mi>
      </visibility>
      <altim_in_hg>30.15</altim_in_hg>
      <sea_level_pressure_mb>1021.0</sea_level_pressure_mb>
      <clouds>
        <cloud>
          <sky_cover>OVC</sky_cover>
          <cloud_base_ft_agl>200</cloud_base_ft_agl>
        </cloud>
      </clouds>
      <wx_string>FG</wx_string>
    </METAR>
  </data>
</response>
